HST                     
1 20580U 90037B   26199.43354525  .00003110  00000+0  93233-4 0  9990
2 20580  28.4721 226.9603 0002184 135.0814 224.9959 15.31079978793364
POLAR                   
1 23802U 96013A   26198.07629098  .00000165  00000+0  00000+0 0  9991
2 23802  79.8950 226.6973 6500355 208.0495  91.8485  1.29846054145242
SWAS                    
1 25560U 98071A   26199.28917332  .00001546  00000+0  10205-3 0  9991
2 25560  69.8943 147.3035 0007711 227.1790 132.8727 15.09758244501962
CXO                     
1 25867U 99040B   26201.11356867  .00000551  00000+0  00000+0 0  9997
2 25867  56.6395 115.7467 7780937 310.0076   0.5836  0.37806069 17440
XMM-NEWTON              
1 25989U 99066A   26201.25992622 -.00000007  00000+0  00000+0 0  9997
2 25989  64.3074 282.5600 4664570  64.3171   0.0365  0.50127970 23163
TERRA                   
1 25994U 99068A   26199.60659832  .00000151  00000+0  39702-4 0  9998
2 25994  97.9439 247.9044 0003536 116.1345  44.6257 14.61125153414196
CLUSTER II-FM7 (SAMBA)  
1 26410U 00041A   26201.60132873  .00010308 -30424-5  00000+0 0  9999
2 26410 149.8019  56.9142 9091652 274.4947 359.3583  0.44850489 20452
CLUSTER II-FM8 (TANGO)  
1 26464U 00045B   26197.70211284  .00047405 -54219-4  00000+0 0  9996
2 26464 150.0212  57.4640 9093702 274.8348   1.9953  0.44420127 20448
ODIN                    
1 26702U 01007A   26199.57788139  .00293286  34125-4  91784-3 0  9991
2 26702  97.3687 242.8555 0005107 151.5829 208.5724 15.91446759394368
TIMED                   
1 26998U 01055B   26199.31908261  .00000537  00000+0  52310-4 0  9991
2 26998  74.0667 172.3317 0002300 297.1721  62.9229 14.95348150335476
CORIOLIS                
1 27640U 03001A   26199.27218815  .00000038  00000+0  38333-4 0  9998
2 27640  98.7135 205.6833 0015036 120.9072 239.3585 14.19952372218635
SORCE                   
1 27651U 03004A   26199.02039646  .00001248  00000+0  99766-4 0  9990
2 27651  39.9915  85.7400 0018770 273.4023  86.4624 15.03849806276545
MOST                    
1 27843U 03031D   26199.46739478  .00000008  00000+0  23513-4 0  9991
2 27843  98.7054 206.7577 0010297 156.0072 204.1587 14.21328093195154
SCISAT 1                
1 27858U 03036A   26199.49149497  .00000236  00000+0  34795-4 0  9998
2 27858  73.9301 109.1456 0007205 176.3851 183.7379 14.81480868236081
SWIFT                   
1 28485U 04047A   26199.57643797  .00039733  00000+0  28862-3 0  9990
2 28485  20.5525 302.2090 0002527  57.1497 302.9192 15.71432448191807
HINODE (SOLAR-B)        
1 29479U 06041A   26199.45750348  .00000261  00000+0  53208-4 0  9995
2 29479  98.0548 215.1492 0017289 183.9439 176.1633 14.68660447 59462
SHIJIAN-6 02A (SJ-6 02A)
1 29505U 06046A   26199.61866961  .00003192  00000+0  16380-3 0  9992
2 29505  97.6338 240.9255 0004151  56.3667 303.7961 15.17267280 77035
SHIJIAN-6 02B (SJ-6 02B)
1 29506U 06046B   26199.66966034  .00000574  00000+0  49117-4 0  9996
2 29506  97.7137 228.5332 0012973 324.0213  36.0136 15.01441579 75468
FGRST (GLAST)           
1 33053U 08029A   26199.52570454  .00001795  00000+0  58361-4 0  9990
2 33053  25.5830 346.8588 0007939 339.8845  20.1380 15.24087136   471
SDO                     
1 36395U 10005A   26199.24005113 -.00000094  00000+0  00000+0 0  9997
2 36395  34.7143  85.8693 0001755  43.0517 151.3467  1.00277384 60372
CRYOSAT 2               
1 36508U 10013A   26199.57803405  .00000083  00000+0  19993-4 0  9991
2 36508  92.0357 284.9329 0002435  98.9285 261.2198 14.51899068862637
X-SAT                   
1 37389U 11015C   26199.60723627  .00000097  00000+0  58864-4 0  9998
2 37389  98.3533 175.1377 0012744 249.8530 110.1280 14.25214630792158
GCOM-W1 (SHIZUKU)       
1 38337U 12025A   26199.57329652  .00000180  00000+0  49953-4 0  9992
2 38337  98.2023 139.6543 0001284  78.8428  94.2832 14.57091667753608
NUSTAR                  
1 38358U 12031A   26199.66671296 -.00001777  00000+0 -16121-3 0  9991
2 38358   6.0262 157.9570 0008817 225.3802 333.9510 15.09062644  1300
NEOSSAT                 
1 39089U 13009D   26199.42897953  .00000042  00000+0  29219-4 0  9998
2 39089  98.4192  18.7209 0011630 148.0748 212.1145 14.35836280701222
BRITE-AUSTRIA           
1 39091U 13009F   26199.48169857  .00000062  00000+0  35786-4 0  9990
2 39091  98.4011  18.1453 0010939 141.4907 218.7063 14.36553265701541
IRIS                    
1 39197U 13033A   26199.14119398  .00000490  00000+0  62352-4 0  9996
2 39197  97.9318  38.3206 0023518 214.9300 145.0373 14.85940228704971
HISAKI (SPRINT-A)       
1 39253U 13049A   26199.28178039  .00000088  00000+0  29182-4 0  9995
2 39253  29.7217  61.9203 0136978 268.8930  89.5946 13.55546891635645
CASSIOPE                
1 39265U 13055A   26199.49310984  .00015981 -53343-6  17091-3 0  9994
2 39265  80.9130  28.6197 0282283 316.6970  41.2378 15.27532516672443
STSAT-3                 
1 39422U 13066G   26199.60631593  .00001740  00000+0  13411-3 0  9990
2 39422  97.6203 168.9876 0008842 291.4833  68.5449 15.02898132688924
